IRIDIUM 150             
1 43257U 18030J   23310.48225599  .00000704  00000+0  24441-3 0  9994
2 43257  86.3956 329.0651 0002206 101.6876 258.4568 14.34221874293485
IRIDIUM 143             
1 43258U 18030K   23310.11440601  .00000742  00000+0  25791-3 0  9999
2 43258  86.3959 329.2735 0002431  95.3251 264.8222 14.34219256293377
IRIDIUM 161             
1 43478U 18047C   23310.03791503  .00000417  00000+0  11798-3 0  9993
2 43478  86.4460 127.2787 0002003  89.9759 270.1671 14.43278263287519
IRIDIUM 152             
1 43479U 18047D   23309.94758866  .00000348  00000+0  11736-3 0  9992
2 43479  86.3931 127.1761 0002316  89.5190 270.6271 14.34219373285713
IRIDIUM 147             
1 43480U 18047E   23310.51206203  .00000287  00000+0  95532-4 0  9991
2 43480  86.3935 126.9286 0001851  86.4263 273.7144 14.34218234285794
IRIDIUM 110             
1 43481U 18047F   23309.89048403  .00000553  00000+0  19050-3 0  9993
2 43481  86.3938 127.2553 0001734  87.5115 272.6279 14.34218563285698
IRIDIUM 162             
1 43482U 18047G   23310.03165261  .00000420  00000+0  11894-3 0  9995
2 43482  86.4458 127.1844 0002018  89.9725 270.1707 14.43283813287509
IRIDIUM 160             
1 43569U 18061A   23309.90608952  .00001032  00000+0  36156-3 0  9998
2 43569  86.3934  95.6051 0002236  84.8645 275.2806 14.34219705276591
